TDRS 3                  
1 19548U 88091B   26198.79350251 -.00000309  00000+0  00000+0 0  9992
2 19548  12.5798 340.7997 0038157 355.0913 196.2647  1.00280222125695
FLTSATCOM 8 (USA 46)    
1 20253U 89077A   26198.76020071 -.00000378  00000+0  00000+0 0  9999
2 20253  12.4226 350.9707 0002492 104.6128 239.1742  1.00282204260860
SKYNET 4C               
1 20776U 90079A   26198.16074995 -.00000215  00000+0  00000+0 0  9991
2 20776  13.3285 349.6256 0002816 132.9021  49.3902  0.98579636   332
TDRS 5                  
1 21639U 91054B   26198.59119402  .00000072  00000+0  00000+0 0  9994
2 21639  14.0672 353.5527 0007349 257.8636  89.1365  1.00274844128017
TDRS 6                  
1 22314U 93003B   26198.82904779 -.00000307  00000+0  00000+0 0  9998
2 22314  14.1833 356.8267 0008550 184.9863   6.3331  1.00278788122718
UFO 2 (USA 95)          
1 22787U 93056A   26198.62993420  .00000113  00000+0  00000+0 0  9993
2 22787  11.9054   3.3817 0002311   6.3505 181.0959  1.00271595118852
UFO 4 (USA 108)         
1 23467U 95003A   26198.72979375 -.00000031  00000+0  00000+0 0  9997
2 23467   9.6784  12.9984 0004041  83.7066 273.9617  1.00280880115256
TDRS 7                  
1 23613U 95035B   26198.92711409 -.00000252  00000+0  00000+0 0  9994
2 23613  13.3644 347.9739 0011338  87.1832 283.6126  1.00273143113560
USA 115 (MILSTAR-1 2)   
1 23712U 95060A   26198.55665972 -.00000215  00000+0  00000+0 0  9993
2 23712  14.0836   3.5188 0006115 122.6134 279.6206  1.00272433 33196
INMARSAT 3-F1           
1 23839U 96020A   26198.29211281  .00000052  00000+0  00000+0 0  9999
2 23839  10.6615  46.3514 0004561  92.6298 134.3294  0.99980893110554
INMARSAT 3-F2           
1 24307U 96053A   26198.50542867 -.00000367  00000+0  00000+0 0  9997
2 24307   9.9228  53.6219 0006305  57.5826 125.4866  0.99990318109225
INMARSAT 3-F3           
1 24674U 96070A   26198.82757146  .00000007  00000+0  00000+0 0  9996
2 24674  10.3821  49.3531 0003614  82.2942 113.2760  0.99996208108210
USA 134                 
1 25019U 97065A   26198.03187133 -.00000076  00000+0  00000+0 0  9998
2 25019  12.8192  21.4959 0002603 336.8164 195.6150  1.00274569 33258
INMARSAT 3-F5           
1 25153U 98006B   26198.10790286 -.00000305  00000+0  00000+0 0  9995
2 25153   9.7585  52.9575 0004413  63.7234 163.1344  1.00272485104198
ABS-6                   
1 25924U 99053A   26198.79836765 -.00000129  00000+0  00000+0 0  9996
2 25924   0.0464 261.5704 0003114 199.0245 281.4215  1.00272118 98149
UFO 10 (USA 146)        
1 25967U 99063A   26198.83366419 -.00000200  00000+0  00000+0 0  9993
2 25967   9.8463  27.0446 0001712 125.5382  60.2421  1.00272297 97653
ASIASTAR                
1 26107U 00016A   26198.57383416 -.00000346  00000+0  00000+0 0  9998
2 26107   9.1987  57.8255 0003869  69.2227 119.9241  1.00270254 96225
USA 149 (DSP 20)        
1 26356U 00024A   26198.58030854  .00000082  00000+0  00000+0 0  9995
2 26356  13.1935  11.6325 0000504 262.1340  65.8015  1.00259902 33213
TDRS 8                  
1 26388U 00034A   26198.96088253 -.00000209  00000+0  00000+0 0  9991
2 26388  12.7306  31.0551 0003793  39.3032 296.1805  1.00271832 95486
NSS-11                  
1 26554U 00059A   26198.80174766  .00000015  00000+0  00000+0 0  9995
2 26554   2.2039  81.0259 0002980  43.9354 275.2715  1.00271845 41598
USA 153                 
1 26575U 00065A   26198.86489622 -.00000337  00000+0  00000+0 0  9999
2 26575  11.6760  35.1608 0002099  57.5902 288.7653  1.00272284 33235
AMC-6                   
1 26580U 00067A   26198.74019380  .00000079  00000+0  00000+0 0  9996
2 26580   0.2284  83.7648 0003987  45.9129 297.2884  1.00272059 94191
USA 157 (MILSTAR-2 2)   
1 26715U 01009A   26198.57475091  .00000097  00000+0  00000+0 0  9999
2 26715  11.5759  19.5722 0040456 179.2569 153.4108  1.00275687 33245
INTELSAT 902 (IS-902)   
1 26900U 01039A   26198.47188061 -.00000295  00000+0  00000+0 0  9996
2 26900   6.1904  71.4099 0004189  44.3428 299.3155  1.00271814 90991
USA 164 (MILSTAR-2 3)   
1 27168U 02001A   26198.75391988  .00000085  00000+0  00000+0 0  9994
2 27168  11.2155  21.7174 0099306   9.0347 195.2232  1.00267574 33263
INTELSAT 904 (IS-904)   
1 27380U 02007A   26198.90326447 -.00000237  00000+0  00000+0 0  9991
2 27380   6.9948  68.8126 0005400  27.1938 133.3994  1.00270406 52074
DIRECTV 5 (TEMPO 1)     
1 27426U 02023A   26198.60254741 -.00000069  00000+0  00000+0 0  9997
2 27426   4.9537  74.9297 0003190  48.7166 278.5717  1.00271724 88427
INTELSAT 905 (IS-905)   
1 27438U 02027A   26198.63725389  .00000082  00000+0  00000+0 0  9992
2 27438   6.8280  69.4293 0003516  48.4479 269.7727  1.00272193 51667
GALAXY 3C (G-3C)        
1 27445U 02030A   26198.81942775 -.00000163  00000+0  00000+0 0  9995
2 27445   3.8113  77.5805 0001653  31.4456  26.7582  1.00270872 46805
INTELSAT 906 (IS-906)   
1 27513U 02041A   26198.83150115  .00000001  00000+0  00000+0 0  9994
2 27513   5.8773  72.5407 0003719  28.3120 198.2986  1.00273689 87331
NIMIQ 2                 
1 27632U 02062A   26198.60272074 -.00000082  00000+0  00000+0 0  9993
2 27632   9.5144  56.5743 0005366  55.8688 290.7375  1.00271669 44480
