OBJECT_NAME,OBJECT_ID,EPOCH,MEAN_MOTION,ECCENTRICITY,INCLINATION,RA_OF_ASC_NODE,ARG_OF_PERICENTER,MEAN_ANOMALY,EPHEMERIS_TYPE,CLASSIFICATION_TYPE,NORAD_CAT_ID,ELEMENT_SET_NO,REV_AT_EPOCH,BSTAR,MEAN_MOTION_DOT,MEAN_MOTION_DDOT
TDRS 3,1988-091B,2026-07-17T19:02:38.616864,1.00280222,.00381573,12.5798,340.7997,355.0913,196.2647,0,U,19548,999,12569,0,-.309E-5,0
FLTSATCOM 8 (USA 46),1989-077A,2026-07-17T18:14:41.341344,1.00282204,.00024928,12.4226,350.9707,104.6128,239.1742,0,U,20253,999,26086,0,-.378E-5,0
SKYNET 4C,1990-079A,2026-07-17T03:51:28.795680,0.98579636,.00028165,13.3285,349.6256,132.9021,49.3902,0,U,20776,999,33,0,-.215E-5,0
TDRS 5,1991-054B,2026-07-17T14:11:19.163328,1.00274844,.00073491,14.0672,353.5527,257.8636,89.1365,0,U,21639,999,12801,0,.72E-6,0
TDRS 6,1993-003B,2026-07-17T19:53:49.729056,1.00278788,.000855,14.1833,356.8267,184.9863,6.3331,0,U,22314,999,12271,0,-.307E-5,0
UFO 2 (USA 95),1993-056A,2026-07-17T15:07:06.314880,1.00271595,.0002311,11.9054,3.3817,6.3505,181.0959,0,U,22787,999,11885,0,.113E-5,0
UFO 4 (USA 108),1995-003A,2026-07-17T17:30:54.180000,1.00280880,.00040419,9.6784,12.9984,83.7066,273.9617,0,U,23467,999,11525,0,-.31E-6,0
TDRS 7,1995-035B,2026-07-17T22:15:02.657376,1.00273143,.00113383,13.3644,347.9739,87.1832,283.6126,0,U,23613,999,11356,0,-.252E-5,0
USA 115 (MILSTAR-1 2),1995-060A,2026-07-17T13:21:35.399808,1.00272433,.0006115,14.0836,3.5188,122.6134,279.6206,0,U,23712,999,3319,0,-.215E-5,0
INMARSAT 3-F1,1996-020A,2026-07-17T07:00:38.546784,0.99980893,.0004561,10.6615,46.3514,92.6298,134.3294,0,U,23839,999,11055,0,.52E-6,0
INMARSAT 3-F2,1996-053A,2026-07-17T12:07:49.037088,0.99990318,.0006305,9.9228,53.6219,57.5826,125.4866,0,U,24307,999,10922,0,-.367E-5,0
INMARSAT 3-F3,1996-070A,2026-07-17T19:51:42.174144,0.99996208,.00036148,10.3821,49.3531,82.2942,113.2760,0,U,24674,999,10821,0,.7E-7,0
USA 134,1997-065A,2026-07-17T00:45:53.682912,1.00274569,.0002603,12.8192,21.4959,336.8164,195.6150,0,U,25019,999,3325,0,-.76E-6,0
INMARSAT 3-F5,1998-006B,2026-07-17T02:35:22.807104,1.00272485,.00044137,9.7585,52.9575,63.7234,163.1344,0,U,25153,999,10419,0,-.305E-5,0
ABS-6,1999-053A,2026-07-17T19:09:38.964960,1.00272118,.00031145,0.0464,261.5704,199.0245,281.4215,0,U,25924,999,9814,0,-.129E-5,0
UFO 10 (USA 146),1999-063A,2026-07-17T20:00:28.586016,1.00272297,.00017126,9.8463,27.0446,125.5382,60.2421,0,U,25967,999,9765,0,-.2E-5,0
ASIASTAR,2000-016A,2026-07-17T13:46:19.271424,1.00270254,.0003869,9.1987,57.8255,69.2227,119.9241,0,U,26107,999,9622,0,-.346E-5,0
USA 149 (DSP 20),2000-024A,2026-07-17T13:55:38.657856,1.00259902,.00005043,13.1935,11.6325,262.1340,65.8015,0,U,26356,999,3321,0,.82E-6,0
TDRS 8,2000-034A,2026-07-17T23:03:40.250592,1.00271832,.00037935,12.7306,31.0551,39.3032,296.1805,0,U,26388,999,9548,0,-.209E-5,0
NSS-11,2000-059A,2026-07-17T19:14:30.997824,1.00271845,.000298,2.2039,81.0259,43.9354,275.2715,0,U,26554,999,4159,0,.15E-6,0
USA 153,2000-065A,2026-07-17T20:45:27.033408,1.00272284,.00020993,11.6760,35.1608,57.5902,288.7653,0,U,26575,999,3323,0,-.337E-5,0
AMC-6,2000-067A,2026-07-17T17:45:52.744320,1.00272059,.00039879,0.2284,83.7648,45.9129,297.2884,0,U,26580,999,9419,0,.79E-6,0
USA 157 (MILSTAR-2 2),2001-009A,2026-07-17T13:47:38.478624,1.00275687,.00404563,11.5759,19.5722,179.2569,153.4108,0,U,26715,999,3324,0,.97E-6,0
INTELSAT 902 (IS-902),2001-039A,2026-07-17T11:19:30.484704,1.00271814,.0004189,6.1904,71.4099,44.3428,299.3155,0,U,26900,999,9099,0,-.295E-5,0
USA 164 (MILSTAR-2 3),2002-001A,2026-07-17T18:05:38.677632,1.00267574,.00993063,11.2155,21.7174,9.0347,195.2232,0,U,27168,999,3326,0,.85E-6,0
INTELSAT 904 (IS-904),2002-007A,2026-07-17T21:40:42.050208,1.00270406,.00054005,6.9948,68.8126,27.1938,133.3994,0,U,27380,999,5207,0,-.237E-5,0
DIRECTV 5 (TEMPO 1),2002-023A,2026-07-17T14:27:40.096224,1.00271724,.00031904,4.9537,74.9297,48.7166,278.5717,0,U,27426,999,8842,0,-.69E-6,0
INTELSAT 905 (IS-905),2002-027A,2026-07-17T15:17:38.736096,1.00272193,.00035167,6.8280,69.4293,48.4479,269.7727,0,U,27438,999,5166,0,.82E-6,0
GALAXY 3C (G-3C),2002-030A,2026-07-17T19:39:58.557600,1.00270872,.00016533,3.8113,77.5805,31.4456,26.7582,0,U,27445,999,4680,0,-.163E-5,0
INTELSAT 906 (IS-906),2002-041A,2026-07-17T19:57:21.699360,1.00273689,.00037193,5.8773,72.5407,28.3120,198.2986,0,U,27513,999,8733,0,.1E-7,0
NIMIQ 2,2002-062A,2026-07-17T14:27:55.071936,1.00271669,.0005366,9.5144,56.5743,55.8688,290.7375,0,U,27632,999,4448,0,-.82E-6,0
